{
  "norad_id": 57850,
  "name": "STARLINK-30425",
  "history": [
    {
      "epoch": "2026-03-28T18:16:55.657920",
      "apogee_km": 475.9184373151829,
      "perigee_km": 474.4695060811464,
      "latitude_deg": -44.61258461157119,
      "longitude_deg": 38.12850879994221,
      "semi_major_axis_km": 6853.330971698165,
      "eccentricity": 0.00010571,
      "inclination_deg": 53.1607,
      "raan_deg": 195.6099,
      "arg_perigee_deg": 43.9965,
      "mean_anomaly_deg": 316.112,
      "mean_motion_rev_day": 15.30207066
    },
    {
      "epoch": "2026-03-29T00:33:09.913824",
      "apogee_km": 476.2577196345637,
      "perigee_km": 474.3017544978038,
      "latitude_deg": 47.54246328129036,
      "longitude_deg": 63.21101536019705,
      "semi_major_axis_km": 6853.4167370661835,
      "eccentricity": 0.0001427,
      "inclination_deg": 53.1593,
      "raan_deg": 194.3977,
      "arg_perigee_deg": 73.3411,
      "mean_anomaly_deg": 286.7746,
      "mean_motion_rev_day": 15.30178342
    }
  ]
}